start=new Date('2022-06-19T00:00:00.000Z').valueOf();
sats=[{"TLE_LINE1":"1 46768U 20074AF  22166.50913862  .00000127  00000-0  27470-4 0  9999","REF_FRAME":"TEME","REV_AT_EPOCH":"9100","DECAY_DATE":null,"EPHEMERIS_TYPE":"0","FILE":"3496794","OBJECT_TYPE":"PAYLOAD","ARG_OF_PERICENTER":"78.3695","MEAN_ANOMALY":"281.7482","ELEMENT_SET_NO":"999","OBJECT_NAME":"STARLINK-1918","EPOCH":"2022-06-15T12:13:09.576768","COUNTRY_CODE":"US","INCLINATION":"53.0571","PERIAPSIS":"546.099","SEMIMAJOR_AXIS":"6925.395","MEAN_MOTION_DOT":"0.00000127","RA_OF_ASC_NODE":"336.1799","NORAD_CAT_ID":"46768","SITE":"AFETR","TLE_LINE2":"2 46768  53.0571 336.1799 0001677  78.3695 281.7482 15.06384756 91008","APOAPSIS":"548.422","CENTER_NAME":"EARTH","MEAN_ELEMENT_THEORY":"SGP4","MEAN_MOTION":"15.06384756","BSTAR":"0.00002747000000","CLASSIFICATION_TYPE":"U","TIME_SYSTEM":"UTC","LAUNCH_DATE":"2020-10-24","PERIOD":"95.593","OBJECT_ID":"2020-074AF","ECCENTRICITY":"0.00016770","GP_ID":"206206616","MEAN_MOTION_DDOT":"0.0000000000000","RCS_SIZE":"LARGE"},{"TLE_LINE1":"1 46770U 20074AH  22166.78196771 -.00001437  00000-0 -77609-4 0  9990","REF_FRAME":"TEME","REV_AT_EPOCH":"9103","DECAY_DATE":null,"FILE":"3496999","EPHEMERIS_TYPE":"0","OBJECT_TYPE":"PAYLOAD","ARG_OF_PERICENTER":"66.6786","MEAN_ANOMALY":"293.4371","ELEMENT_SET_NO":"999","OBJECT_NAME":"STARLINK-1932","EPOCH":"2022-06-15T18:46:02.010144","COUNTRY_CODE":"US","INCLINATION":"53.0558","PERIAPSIS":"546.104","SEMIMAJOR_AXIS":"6925.347","MEAN_MOTION_DOT":"-0.00001437","RA_OF_ASC_NODE":"335.5011","NORAD_CAT_ID":"46770","SITE":"AFETR","TLE_LINE2":"2 46770  53.0558 335.5011 0001599  66.6786 293.4371 15.06400587 91031","APOAPSIS":"548.319","MEAN_ELEMENT_THEORY":"SGP4","CENTER_NAME":"EARTH","MEAN_MOTION":"15.06400587","CLASSIFICATION_TYPE":"U","BSTAR":"-0.00007760900000","TIME_SYSTEM":"UTC","PERIOD":"95.592","LAUNCH_DATE":"2020-10-24","OBJECT_ID":"2020-074AH","ECCENTRICITY":"0.00015990","RCS_SIZE":"LARGE","GP_ID":"206237555","MEAN_MOTION_DDOT":"0.0000000000000"},{"MEAN_MOTION":"15.06518056","CLASSIFICATION_TYPE":"U","BSTAR":"-0.00309050000000","TIME_SYSTEM":"UTC","LAUNCH_DATE":"2020-10-24","PERIOD":"95.585","OBJECT_ID":"2020-074AK","ECCENTRICITY":"0.00019850","GP_ID":"206287561","MEAN_MOTION_DDOT":"0.0000000000000","RCS_SIZE":"LARGE","PERIAPSIS":"545.477","SEMIMAJOR_AXIS":"6924.987","MEAN_MOTION_DOT":"-0.00046165","RA_OF_ASC_NODE":"333.7544","SITE":"AFETR","NORAD_CAT_ID":"46772","TLE_LINE2":"2 46772  53.0538 333.7544 0001985  89.0500 271.0716 15.06518056 91085","APOAPSIS":"548.226","CENTER_NAME":"EARTH","MEAN_ELEMENT_THEORY":"SGP4","ARG_OF_PERICENTER":"89.0500","MEAN_ANOMALY":"271.0716","ELEMENT_SET_NO":"999","EPOCH":"2022-06-16T01:06:39.714336","OBJECT_NAME":"STARLINK-1936","COUNTRY_CODE":"US","INCLINATION":"53.0538","TLE_LINE1":"1 46772U 20074AK  22167.04629299 -.00046165  00000-0 -30905-2 0  9991","REF_FRAME":"TEME","REV_AT_EPOCH":"9108","DECAY_DATE":null,"FILE":"3497002","EPHEMERIS_TYPE":"0","OBJECT_TYPE":"PAYLOAD"},{"ARG_OF_PERICENTER":"139.2977","MEAN_ANOMALY":"220.8137","ELEMENT_SET_NO":"999","OBJECT_NAME":"STARLINK-1939","EPOCH":"2022-06-15T16:49:13.068480","COUNTRY_CODE":"US","INCLINATION":"53.0501","TLE_LINE1":"1 46774U 20074AM  22166.70084570  .00027270  00000-0  14500-2 0  9999","REF_FRAME":"TEME","REV_AT_EPOCH":"9115","DECAY_DATE":null,"FILE":"3496999","EPHEMERIS_TYPE":"0","OBJECT_TYPE":"PAYLOAD","MEAN_MOTION":"15.15099145","BSTAR":"0.00145000000000","CLASSIFICATION_TYPE":"U","TIME_SYSTEM":"UTC","LAUNCH_DATE":"2020-10-24","PERIOD":"95.043","OBJECT_ID":"2020-074AM","ECCENTRICITY":"0.00016110","GP_ID":"206236554","RCS_SIZE":"LARGE","MEAN_MOTION_DDOT":"0.0000000000000","PERIAPSIS":"519.568","SEMIMAJOR_AXIS":"6898.815","MEAN_MOTION_DOT":"0.00027270","RA_OF_ASC_NODE":"327.2338","SITE":"AFETR","NORAD_CAT_ID":"46774","TLE_LINE2":"2 46774  53.0501 327.2338 0001611 139.2977 220.8137 15.15099145 91158","APOAPSIS":"521.791","MEAN_ELEMENT_THEORY":"SGP4","CENTER_NAME":"EARTH"},{"SITE":"AFETR","NORAD_CAT_ID":"46776","TLE_LINE2":"2 46776  53.0530 302.9489 0003813  27.6470 332.4737 15.42199118 91486","MEAN_ELEMENT_THEORY":"SGP4","CENTER_NAME":"EARTH","APOAPSIS":"442.222","PERIAPSIS":"437.023","SEMIMAJOR_AXIS":"6817.757","MEAN_MOTION_DOT":"0.00015556","RA_OF_ASC_NODE":"302.9489","OBJECT_ID":"2020-074AP","ECCENTRICITY":"0.00038130","GP_ID":"206236804","MEAN_MOTION_DDOT":"0.0000000000000","RCS_SIZE":"LARGE","MEAN_MOTION":"15.42199118","CLASSIFICATION_TYPE":"U","BSTAR":"0.00036565000000","TIME_SYSTEM":"UTC","PERIOD":"93.373","LAUNCH_DATE":"2020-10-24","REV_AT_EPOCH":"9148","EPHEMERIS_TYPE":"0","FILE":"3496999","DECAY_DATE":null,"OBJECT_TYPE":"PAYLOAD","TLE_LINE1":"1 46776U 20074AP  22166.64150409  .00015556  00000-0  36565-3 0  9999","REF_FRAME":"TEME","OBJECT_NAME":"STARLINK-1946","EPOCH":"2022-06-15T15:23:45.953376","COUNTRY_CODE":"US","INCLINATION":"53.0530","ARG_OF_PERICENTER":"27.6470","MEAN_ANOMALY":"332.4737","ELEMENT_SET_NO":"999"},{"OBJECT_TYPE":"PAYLOAD","DECAY_DATE":null,"EPHEMERIS_TYPE":"0","FILE":"3496876","REV_AT_EPOCH":"9105","REF_FRAME":"TEME","TLE_LINE1":"1 46779U 20074AS  22166.41375935  .00000375  00000-0  44079-4 0  9993","INCLINATION":"53.0555","COUNTRY_CODE":"US","OBJECT_NAME":"STARLINK-1798","EPOCH":"2022-06-15T09:55:48.807840","ELEMENT_SET_NO":"999","MEAN_ANOMALY":"305.0055","ARG_OF_PERICENTER":"55.1103","APOAPSIS":"548.484","CENTER_NAME":"EARTH","MEAN_ELEMENT_THEORY":"SGP4","TLE_LINE2":"2 46779  53.0555 311.6101 0001803  55.1103 305.0055 15.06392757 91056","SITE":"AFETR","NORAD_CAT_ID":"46779","RA_OF_ASC_NODE":"311.6101","MEAN_MOTION_DOT":"0.00000375","SEMIMAJOR_AXIS":"6925.371","PERIAPSIS":"545.987","RCS_SIZE":"LARGE","GP_ID":"206212985","MEAN_MOTION_DDOT":"0.0000000000000","ECCENTRICITY":"0.00018030","OBJECT_ID":"2020-074AS","PERIOD":"95.593","LAUNCH_DATE":"2020-10-24","TIME_SYSTEM":"UTC","CLASSIFICATION_TYPE":"U","BSTAR":"0.00004407900000","MEAN_MOTION":"15.06392757"},{"INCLINATION":"53.0547","COUNTRY_CODE":"US","OBJECT_NAME":"STARLINK-1832","EPOCH":"2022-06-15T16:02:04.017120","ELEMENT_SET_NO":"999","MEAN_ANOMALY":"292.4056","ARG_OF_PERICENTER":"67.7096","OBJECT_TYPE":"PAYLOAD","FILE":"3496999","EPHEMERIS_TYPE":"0","DECAY_DATE":null,"REV_AT_EPOCH":"9137","REF_FRAME":"TEME","TLE_LINE1":"1 46780U 20074AT  22166.66810205 -.00001694  00000-0 -94881-4 0  9999","RCS_SIZE":"LARGE","GP_ID":"206237307","MEAN_MOTION_DDOT":"0.0000000000000","ECCENTRICITY":"0.00015320","OBJECT_ID":"2020-074AT","PERIOD":"95.593","LAUNCH_DATE":"2020-10-24","TIME_SYSTEM":"UTC","CLASSIFICATION_TYPE":"U","BSTAR":"-0.00009488100000","MEAN_MOTION":"15.06386844","CENTER_NAME":"EARTH","MEAN_ELEMENT_THEORY":"SGP4","APOAPSIS":"548.315","TLE_LINE2":"2 46780  53.0547 310.4751 0001532  67.7096 292.4056 15.06386844 91371","NORAD_CAT_ID":"46780","SITE":"AFETR","RA_OF_ASC_NODE":"310.4751","MEAN_MOTION_DOT":"-0.00001694","SEMIMAJOR_AXIS":"6925.389","PERIAPSIS":"546.193"},{"OBJECT_ID":"2020-074AU","ECCENTRICITY":"0.00014530","GP_ID":"206236055","MEAN_MOTION_DDOT":"0.0000000000000","RCS_SIZE":"LARGE","MEAN_MOTION":"15.06396045","CLASSIFICATION_TYPE":"U","BSTAR":"0.00003721600000","TIME_SYSTEM":"UTC","PERIOD":"95.592","LAUNCH_DATE":"2020-10-24","NORAD_CAT_ID":"46781","SITE":"AFETR","TLE_LINE2":"2 46781  53.0553 320.3928 0001453  78.2665 281.8487 15.06396045 91246","APOAPSIS":"548.232","MEAN_ELEMENT_THEORY":"SGP4","CENTER_NAME":"EARTH","PERIAPSIS":"546.219","SEMIMAJOR_AXIS":"6925.361","MEAN_MOTION_DOT":"0.00000273","RA_OF_ASC_NODE":"320.3928","EPOCH":"2022-06-15T16:27:15.631776","OBJECT_NAME":"STARLINK-1834","COUNTRY_CODE":"US","INCLINATION":"53.0553","ARG_OF_PERICENTER":"78.2665","MEAN_ANOMALY":"281.8487","ELEMENT_SET_NO":"999","REV_AT_EPOCH":"9124","DECAY_DATE":null,"EPHEMERIS_TYPE":"0","FILE":"3496999","OBJECT_TYPE":"PAYLOAD","TLE_LINE1":"1 46781U 20074AU  22166.68559759  .00000273  00000-0  37216-4 0  9995","REF_FRAME":"TEME"},{"DECAY_DATE":null,"EPHEMERIS_TYPE":"0","FILE":"3496999","OBJECT_TYPE":"PAYLOAD","REV_AT_EPOCH":"9137","REF_FRAME":"TEME","TLE_LINE1":"1 46782U 20074AV  22166.65703679  .00000244  00000-0  35265-4 0  9995","COUNTRY_CODE":"US","INCLINATION":"53.0562","OBJECT_NAME":"STARLINK-1835","EPOCH":"2022-06-15T15:46:07.978656","MEAN_ANOMALY":"284.6656","ELEMENT_SET_NO":"999","ARG_OF_PERICENTER":"75.4497","TLE_LINE2":"2 46782  53.0562 310.5062 0001476  75.4497 284.6656 15.06393937 91374","APOAPSIS":"548.254","CENTER_NAME":"EARTH","MEAN_ELEMENT_THEORY":"SGP4","NORAD_CAT_ID":"46782","SITE":"AFETR","MEAN_MOTION_DOT":"0.00000244","RA_OF_ASC_NODE":"310.5062","PERIAPSIS":"546.210","SEMIMAJOR_AXIS":"6925.367","ECCENTRICITY":"0.00014760","RCS_SIZE":"LARGE","GP_ID":"206236305","MEAN_MOTION_DDOT":"0.0000000000000","OBJECT_ID":"2020-074AV","TIME_SYSTEM":"UTC","LAUNCH_DATE":"2020-10-24","PERIOD":"95.593","MEAN_MOTION":"15.06393937","BSTAR":"0.00003526500000","CLASSIFICATION_TYPE":"U"},{"MEAN_ANOMALY":"308.7656","ELEMENT_SET_NO":"999","ARG_OF_PERICENTER":"51.3492","COUNTRY_CODE":"US","INCLINATION":"53.0559","EPOCH":"2022-06-15T16:07:21.302112","OBJECT_NAME":"STARLINK-1851","REF_FRAME":"TEME","TLE_LINE1":"1 46783U 20074AW  22166.67177433 -.00000893  00000-0 -41052-4 0  9994","DECAY_DATE":null,"FILE":"3496999","EPHEMERIS_TYPE":"0","OBJECT_TYPE":"PAYLOAD","REV_AT_EPOCH":"9137","TIME_SYSTEM":"UTC","LAUNCH_DATE":"2020-10-24","PERIOD":"95.592","MEAN_MOTION":"15.06398806","BSTAR":"-0.00004105200000","CLASSIFICATION_TYPE":"U","ECCENTRICITY":"0.00017800","MEAN_MOTION_DDOT":"0.0000000000000","GP_ID":"206237556","RCS_SIZE":"LARGE","OBJECT_ID":"2020-074AW","MEAN_MOTION_DOT":"-0.00000893","RA_OF_ASC_NODE":"310.4525","PERIAPSIS":"545.985","SEMIMAJOR_AXIS":"6925.352","TLE_LINE2":"2 46783  53.0559 310.4525 0001780  51.3492 308.7656 15.06398806 91378","APOAPSIS":"548.450","CENTER_NAME":"EARTH","MEAN_ELEMENT_THEORY":"SGP4","NORAD_CAT_ID":"46783","SITE":"AFETR"}];
